[{"OBJECT_NAME":"OBJECT H","OBJECT_ID":"2024-205H","EPOCH":"2026-03-09T23:10:36.271776","MEAN_MOTION":15.29110994,"ECCENTRICITY":0.00105089,"INCLINATION":97.4168,"RA_OF_ASC_NODE":147.1265,"ARG_OF_PERICENTER":38.7838,"MEAN_ANOMALY":321.4154,"EPHEMERIS_TYPE":0,"CLASSIFICATION_TYPE":"U","NORAD_CAT_ID":61901,"ELEMENT_SET_NO":999,"REV_AT_EPOCH":7354,"BSTAR":0.00059497566,"MEAN_MOTION_DOT":0.00016783,"MEAN_MOTION_DDOT":0},{"OBJECT_NAME":"STARLINK-34513","OBJECT_ID":"2025-137R","EPOCH":"2026-03-09T03:38:19.039200","MEAN_MOTION":15.30208257,"ECCENTRICITY":0.00011775,"INCLINATION":53.1597,"RA_OF_ASC_NODE":337.6617,"ARG_OF_PERICENTER":4.5952,"MEAN_ANOMALY":355.5059,"EPHEMERIS_TYPE":0,"CLASSIFICATION_TYPE":"U","NORAD_CAT_ID":64609,"ELEMENT_SET_NO":999,"REV_AT_EPOCH":4074,"BSTAR":0.0012972677,"MEAN_MOTION_DOT":0.0003827,"MEAN_MOTION_DDOT":0}]
